{
    "links": {
        "self": "http://www.neowsapp.com/rest/v1/neo/3514890?api_key=iIulBulltgU6a56xZRHN4H3l9WmuAYTsLGpBGhQ2"
    },
    "id": "3514890",
    "neo_reference_id": "3514890",
    "name": "(2010 GA6)",
    "designation": "2010 GA6",
    "nasa_jpl_url": "http://ssd.jpl.nasa.gov/sbdb.cgi?sstr=3514890",
    "absolute_magnitude_h": 26.0,
    "estimated_diameter": {
        "kilometers": {
            "estimated_diameter_min": 0.0167708462,
            "estimated_diameter_max": 0.0375007522
        },
        "meters": {
            "estimated_diameter_min": 16.7708462163,
            "estimated_diameter_max": 37.5007521798
        },
        "miles": {
            "estimated_diameter_min": 0.0104209175,
            "estimated_diameter_max": 0.0233018799
        },
        "feet": {
            "estimated_diameter_min": 55.0224631002,
            "estimated_diameter_max": 123.0339677816
        }
    },
    "is_potentially_hazardous_asteroid": false,
    "close_approach_data": [
        {
            "close_approach_date": "1979-07-14",
            "close_approach_date_full": "1979-Jul-14 09:09",
            "epoch_date_close_approach": 300791340000,
            "relative_velocity": {
                "kilometers_per_second": "18.8874164618",
                "kilometers_per_hour": "67994.6992624591",
                "miles_per_hour": "42249.2618833874"
            },
            "miss_distance": {
                "astronomical": "0.3378644968",
                "lunar": "131.4292892552",
                "kilometers": "50543809.069901816",
                "miles": "31406466.6188284208"
            },
            "orbiting_body": "Earth"
        },
        {
            "close_approach_date": "2010-04-09",
            "close_approach_date_full": "2010-Apr-09 02:07",
            "epoch_date_close_approach": 1270778820000,
            "relative_velocity": {
                "kilometers_per_second": "12.0870568892",
                "kilometers_per_hour": "43513.4048009674",
                "miles_per_hour": "27037.5375553566"
            },
            "miss_distance": {
                "astronomical": "0.0029010123",
                "lunar": "1.1284937847",
                "kilometers": "433985.260923801",
                "miles": "269665.9365624138"
            },
            "orbiting_body": "Earth"
        },
        {
            "close_approach_date": "2010-04-09",
            "close_approach_date_full": "2010-Apr-09 10:28",
            "epoch_date_close_approach": 1270808880000,
            "relative_velocity": {
                "kilometers_per_second": "11.7942991236",
                "kilometers_per_hour": "42459.4768449096",
                "miles_per_hour": "26382.6677095495"
            },
            "miss_distance": {
                "astronomical": "0.0044171487",
                "lunar": "1.7182708443",
                "kilometers": "660796.036993269",
                "miles": "410599.6176303522"
            },
            "orbiting_body": "Moon"
        },
        {
            "close_approach_date": "2012-01-12",
            "close_approach_date_full": "2012-Jan-12 15:08",
            "epoch_date_close_approach": 1326380880000,
            "relative_velocity": {
                "kilometers_per_second": "4.3487903293",
                "kilometers_per_hour": "15655.6451855469",
                "miles_per_hour": "9727.8090876527"
            },
            "miss_distance": {
                "astronomical": "1.4210637197",
                "lunar": "552.7937869633",
                "kilometers": "212588105.601397039",
                "miles": "132096123.4420715782"
            },
            "orbiting_body": "Juptr"
        }
    ],
    "orbital_data": {
        "orbit_id": "11",
        "orbit_determination_date": "2017-04-06 08:57:57",
        "first_observation_date": "2010-04-05",
        "last_observation_date": "2010-04-09",
        "data_arc_in_days": 4,
        "observations_used": 131,
        "orbit_uncertainty": "6",
        "minimum_orbit_intersection": ".00363959",
        "jupiter_tisserand_invariant": "3.308",
        "epoch_osculation": "2459000.5",
        "eccentricity": ".5970830646921368",
        "semi_major_axis": "2.307969913029124",
        "inclination": "9.74934708657835",
        "ascending_node_longitude": "197.6443237717866",
        "orbital_period": "1280.688888088015",
        "perihelion_distance": ".9299201641404501",
        "perihelion_argument": "34.39144989010886",
        "aphelion_distance": "3.686019661917797",
        "perihelion_time": "2459170.248721430648",
        "mean_anomaly": "312.2838526331982",
        "mean_motion": ".2810987144094429",
        "equinox": "J2000",
        "orbit_class": {
            "orbit_class_type": "APO",
            "orbit_class_description": "Near-Earth asteroid orbits which cross the Earth’s orbit similar to that of 1862 Apollo",
            "orbit_class_range": "a (semi-major axis) > 1.0 AU; q (perihelion) < 1.017 AU"
        }
    },
    "is_sentry_object": false
}